#aV2013 11  3  0  0  0.00000000     288 DD+AD WGS84 FIT  NGA
## 1765      0.00000000   300.00000000 56599 0.0000000000000
+   31     1  2  3  4  5  6  7  8  9 10 11 12 13 14 15 16 17
+         18 19 20 21 22 23 24 25 26 27 28 29 31 32  0  0  0
+          0  0  0  0  0  0  0  0  0  0  0  0  0  0  0  0  0
+          0  0  0  0  0  0  0  0  0  0  0  0  0  0  0  0  0
+          0  0  0  0  0  0  0  0  0  0  0  0  0  0  0  0  0
++         2  2  2  2  2  2  2  2  2  2  2  2  2  2  2  2  2
++         2  2  2  2  2  2  2  2  2  2  2  2  2  2  2  0  0
++         0  0  0  0  0  0  0  0  0  0  0  0  0  0  0  0  0
++         0  0  0  0  0  0  0  0  0  0  0  0  0  0  0  0  0
++         0  0  0  0  0  0  0  0  0  0  0  0  0  0  0  0  0
%c cc cc ccc ccc cccc cccc cccc cccc ccccc ccccc ccccc ccccc
%c cc cc ccc ccc cccc cccc cccc cccc ccccc ccccc ccccc ccccc
%f  0.0000000  0.000000000  0.00000000000  0.000000000000000
%f  0.0000000  0.000000000  0.00000000000  0.000000000000000
%i    0    0    0    0      0      0      0      0         0
%i    0    0    0    0      0      0      0      0         0
/*      NGA, ST. LOUIS,MO.                                  
/*   EPHEMERIS COMPUTED FROM  1 DAYS OF DATA
/*   EPOCHA SMOOTHER  
/* CCCCCCCCCCCCCCCCCCCCCCCCCCCCCCCCCCCCCCCCCCCCCCCCCCCCCCCCC
*  2013 11  3  9 25  0.00000000                                                 
P  1   5657.364319 -18285.666236 -18401.102258     90.889415                    
V  1  20902.942352 -10499.469369  16997.473806      0.034263                    
P  2 -22253.499636  13982.639768    115.035277    459.215368                    
V  2  -1991.330386  -3433.279157 -31584.493024      0.021763                    
P  3   9528.028337 -17816.951293  16614.213123    281.112616                    
V  3   5984.316182  21593.992008  19290.446084      0.051610                    
P  4 -23448.493004   3329.821320 -12580.305785      2.730771                    
V  4  11894.532340 -10205.848021 -25234.766980      0.004492                    
P  5 -16191.463291   7228.007169  19787.155324   -398.178931                    
V  5 -21421.818825 -13317.616972 -12487.174760      0.005806                    
P  6  13829.486222 -10405.261642  20102.967144    132.450829                    
V  6   3388.645872  25385.193110  11221.238381      0.175873                    
P  7 -10157.624113 -11311.873626  21868.750891    276.588751                    
V  7  23918.561211 -13653.844816   3744.949790      0.042099                    
P  8 -19729.046529  -3813.727448  17820.968849      9.607403                    
V  8  19889.830302  -9514.877025  19549.229227      0.001850                    
P  9 -19619.593823  -1799.164360  17349.598829    280.296877                    
V  9  19070.621938 -12898.204181  19504.117566      0.028071                    
P 10 -24374.336953  -7970.822192   7396.215985   -100.235867                    
V 10  -6956.700051  -7380.760093 -29192.219101     -0.014727                    
P 11   8999.577597 -22786.277361 -10439.078372   -434.517252                    
V 11  11859.278746  -6625.989452  26116.065820     -0.033992                    
P 12   1491.710142  16852.229981 -20577.980043    165.863983                    
V 12 -22456.048871 -12911.744809 -12030.418447      0.022438                    
P 13  -5749.437704 -23028.672262  11641.747966     63.636969                    
V 13   3372.497292 -14761.443183 -27366.305393     -0.038314                    
P 14  14091.434949   6886.160574 -21238.470808    211.672394                    
V 14  -2173.794130  27339.567080   7206.431312     -0.010152                    
P 15  -4043.891693  25123.602955   7060.896970   -145.216335                    
V 15  -3950.363586  -8938.113799  29677.142662     -0.019272                    
P 16  16140.669041  -5709.257845  20372.559494   -242.847095                    
V 16  21425.458452  14327.454234 -12613.181498      0.010302                    
P 17 -14209.129166  -7709.201005 -20890.746594    -37.221634                    
V 17   1420.390248 -26958.289331   8650.135695     -0.036247                    
P 18  19250.801659  17147.393624   7505.650092    282.874313                    
V 18  -9404.660761  -1479.156968  28820.518069      0.021007                    
P 19   7960.338903 -23509.979147   8715.334612   -415.931926                    
V 19   1947.946564  11549.219997  29396.113305     -0.026715                    
P 20  -6070.149611 -18337.525711 -18444.564803    134.084571                    
V 20  21607.089963   8484.052344 -15623.390580      0.028391                    
P 21  13624.477951  10132.229672  21102.705308   -326.686663                    
V 21 -21580.831592  13566.533767   7134.541626     -0.018356                    
P 22  24277.954983  10139.181305  -3974.708894    193.149409                    
V 22   2779.062215   5879.391313  30297.096487      0.020635                    
P 23   -878.851499 -26300.815584   1191.546445     33.513077                    
V 23   3378.678340  -1425.855491 -31820.132732     -0.033653                    
P 24  -9919.410263  18939.057918 -15724.570476    -16.683014                    
V 24 -18159.346068   8610.038403  21888.192563     -0.007186                    
P 25  14561.282737  18140.688688 -12970.591817    163.387072                    
V 25 -15151.817012  -6315.704298 -25856.867290      0.033891                    
P 26 -12421.814205  15978.141855  16386.012880    259.320782                    
V 26    -53.113825 -22209.677176  21117.948380     -0.102179                    
P 27  12587.606905 -14482.777671  18347.326880    -54.482522                    
V 27   1887.909539  23296.669587  17099.121108     -0.037523                    
P 28 -22696.430044 -13892.755309   -878.630128    305.759341                    
V 28   -502.641321  -2605.533349  32153.508309      0.030513                    
P 29   4487.637100  24999.489503   7863.816548    484.055417                    
V 29  -2780.454036   9820.341221 -29743.779381      0.029986                    
P 31  23914.951599  -5280.133988 -10464.615955    329.038431                    
V 31 -10854.208678   8090.620366 -28139.089909      0.006666                    
P 32   5427.846266 -14794.076809 -21332.996879   -533.797457                    
V 32  22696.551664  15175.695255  -4192.445404      0.042161                    
EOF
